OBJECT_NAME,OBJECT_ID,EPOCH,MEAN_MOTION,ECCENTRICITY,INCLINATION,RA_OF_ASC_NODE,ARG_OF_PERICENTER,MEAN_ANOMALY,EPHEMERIS_TYPE,CLASSIFICATION_TYPE,NORAD_CAT_ID,ELEMENT_SET_NO,REV_AT_EPOCH,BSTAR,MEAN_MOTION_DOT,MEAN_MOTION_DDOT
HAWK-5A,2022-057AB,2026-07-16T23:05:17.754720,15.52363268,.00031955,97.6630,358.7605,330.0631,30.0438,0,U,52757,999,23096,.172099E-3,.10385E-3,0
HAWK-6B,2023-011A,2026-07-17T06:43:14.333664,15.23165450,.00044084,40.4975,176.5147,251.1404,108.8927,0,U,55324,999,19243,.11291617E-3,.2529E-4,0
HAWK-6C,2023-011C,2026-07-17T05:07:54.792768,15.23165002,.00049207,40.4965,173.7366,244.6978,115.3322,0,U,55326,999,19243,.10017758E-3,.2221E-4,0
HAWK-6A,2023-011D,2026-07-17T06:42:22.960224,15.23165302,.00045286,40.4975,174.9807,242.0934,117.9417,0,U,55327,999,19244,.10527257E-3,.2344E-4,0
HAWK-7A,2023-054P,2026-07-17T02:42:55.220832,15.27644350,.00012326,97.2658,84.6895,321.9127,38.2026,0,U,56191,999,18159,.11158353E-3,.2943E-4,0
HAWK-7B,2023-054R,2026-07-17T05:51:28.285632,15.27643443,.00011005,97.2684,83.0916,11.8899,348.2367,0,U,56193,999,18161,.11140615E-3,.2938E-4,0
HAWK-7C,2023-054Y,2026-07-17T02:42:38.517120,15.27645306,.0000733,97.2659,83.7235,345.5508,14.5710,0,U,56200,999,18159,.11070297E-3,.2919E-4,0
